HAWK-11C                
1 62381U 24247E   26068.51221537  .00009223  00000+0  33290-3 0  9992
2 62381  45.0045 114.8762 0005900 329.7040  30.3502 15.28848020 67743
STARLINK-33882          
1 63788U 25091P   26067.97865993  .00031961  00000+0  11651-2 0  9991
2 63788  43.0012  56.5202 0001337 173.0414 187.0457 15.27604135 48781
